{
    "links": {
        "self": "http://www.neowsapp.com/rest/v1/neo/3797458?api_key=iIulBulltgU6a56xZRHN4H3l9WmuAYTsLGpBGhQ2"
    },
    "id": "3797458",
    "neo_reference_id": "3797458",
    "name": "(2018 AR2)",
    "designation": "2018 AR2",
    "nasa_jpl_url": "http://ssd.jpl.nasa.gov/sbdb.cgi?sstr=3797458",
    "absolute_magnitude_h": 25.5,
    "estimated_diameter": {
        "kilometers": {
            "estimated_diameter_min": 0.0211132445,
            "estimated_diameter_max": 0.0472106499
        },
        "meters": {
            "estimated_diameter_min": 21.113244479,
            "estimated_diameter_max": 47.2106498806
        },
        "miles": {
            "estimated_diameter_min": 0.0131191578,
            "estimated_diameter_max": 0.0293353287
        },
        "feet": {
            "estimated_diameter_min": 69.2691770164,
            "estimated_diameter_max": 154.8905885541
        }
    },
    "is_potentially_hazardous_asteroid": false,
    "close_approach_data": [
        {
            "close_approach_date": "2018-01-09",
            "close_approach_date_full": "2018-Jan-09 16:54",
            "epoch_date_close_approach": 1515516840000,
            "relative_velocity": {
                "kilometers_per_second": "7.319922639",
                "kilometers_per_hour": "26351.721500323",
                "miles_per_hour": "16373.9349511313"
            },
            "miss_distance": {
                "astronomical": "0.0378472913",
                "lunar": "14.7225963157",
                "kilometers": "5661874.163749531",
                "miles": "3518125.4677082878"
            },
            "orbiting_body": "Earth"
        }
    ],
    "orbital_data": {
        "orbit_id": "4",
        "orbit_determination_date": "2018-01-22 06:52:43",
        "first_observation_date": "2018-01-12",
        "last_observation_date": "2018-01-22",
        "data_arc_in_days": 10,
        "observations_used": 51,
        "orbit_uncertainty": "8",
        "minimum_orbit_intersection": ".037305",
        "jupiter_tisserand_invariant": "4.160",
        "epoch_osculation": "2458132.5",
        "eccentricity": ".3862738149379217",
        "semi_major_axis": "1.660340235135356",
        "inclination": "10.1505586817555",
        "ascending_node_longitude": "109.8895920012356",
        "orbital_period": "781.4371704077241",
        "perihelion_distance": "1.018994278414696",
        "perihelion_argument": "352.7314279808025",
        "aphelion_distance": "2.301686191856015",
        "perihelion_time": "2458122.745332291993",
        "mean_anomaly": "4.493874245897797",
        "mean_motion": ".4606896288439488",
        "equinox": "J2000",
        "orbit_class": {
            "orbit_class_type": "AMO",
            "orbit_class_description": "Near-Earth asteroid orbits similar to that of 1221 Amor",
            "orbit_class_range": "1.017 AU < q (perihelion) < 1.3 AU"
        }
    },
    "is_sentry_object": false
}